0 DELTA 1 DEB
1 39095U 73086HH  13281.17647932 -.00000032  00000-0  10000-3 0   131
2 39095 102.0251 263.3454 0059063 314.4442 045.1677 12.30503414392693
0 DELTA 1 DEB
1 39095U 73086HH  13287.76183873 -.00000032  00000-0  10000-3 0   153
2 39095 102.0179 269.7211 0057762 301.1400 058.4091 12.30504534393506
0 DELTA 1 DEB
1 39095U 73086HH  13291.17646898 -.00000032  00000-0  10000-3 0   165
2 39095 102.0117 273.0338 0058176 295.0547 064.4549 12.30505189393927
0 DELTA 1 DEB
1 39095U 73086HH  13294.75370221 -.00000032  00000-0  10000-3 0   177
2 39095 102.0062 276.4968 0057355 287.7776 071.7149 12.30505652394363
